NORAD_CAT_ID,OBJECT_NAME,OBJECT_TYPE,EPOCH,MEAN_MOTION,ECCENTRICITY,INCLINATION,RA_OF_ASC_NODE,ARG_OF_PERICENTER,MEAN_ANOMALY,BSTAR,MEAN_MOTION_DOT,MEAN_MOTION_DDOT,TLE_LINE0,TLE_LINE1,TLE_LINE2,SEMIMAJOR_AXIS,PERIOD,APOGEE,PERIGEE,DECAYED
53246.0,STARLINK-4131,PAYLOAD,2023-02-01 14:07:35,15.08841202,0.0001227,53.2151,246.3173,92.7794,267.3338,0.00010436,1.373e-05,0.0,0 STARLINK-4131,1 53246U 22086E   23032.58860348  .00001373  00000-0  10436-3 0  9991,2 53246  53.2151 246.3173 0001227  92.7794 267.3338 15.08841202 29223,6917.877,95.437,540.591,538.893,0.0
53246.0,STARLINK-4131,PAYLOAD,2023-02-02 13:58:22,15.08841858,0.0001399,53.2142,241.8568,97.1029,263.0122,9.1538e-05,1.169e-05,0.0,0 STARLINK-4131,1 53246U 22086E   23033.58220239  .00001169  00000-0  91538-4 0  9997,2 53246  53.2142 241.8568 0001399  97.1029 263.0122 15.08841858 29378,6917.875,95.437,540.708,538.772,0.0
53246.0,STARLINK-4131,PAYLOAD,2023-02-02 23:30:41,15.0884006,0.0001344,53.2145,240.0732,91.9743,268.1403,6.1606e-05,6.93e-06,0.0,0 STARLINK-4131,1 53246U 22086E   23033.97964397  .00000693  00000-0  61606-4 0  9994,2 53246  53.2145 240.0732 0001344  91.9743 268.1403 15.08840060 30048,6917.88,95.438,540.675,538.815,0.0
53246.0,STARLINK-4131,PAYLOAD,2023-02-03 13:49:09,15.08838352,0.0001377,53.2141,237.3968,94.0994,266.0156,1.4581e-05,-5.6e-07,0.0,0 STARLINK-4131,1 53246U 22086E   23034.57580654 -.00000056  00000-0  14581-4 0  9995,2 53246  53.2141 237.3968 0001377  94.0994 266.0156 15.08838352 29526,6917.885,95.438,540.703,538.798,0.0
53246.0,STARLINK-4131,PAYLOAD,2023-02-04 05:43:01,15.08838902,0.0001369,53.2147,234.4239,86.0054,274.1095,3.874e-05,3.29e-06,0.0,0 STARLINK-4131,1 53246U 22086E   23035.23820648  .00000329  00000-0  38740-4 0  9994,2 53246  53.2147 234.4239 0001369  86.0054 274.1095 15.08838902 30233,6917.884,95.438,540.696,538.802,0.0
53246.0,STARLINK-4131,PAYLOAD,2023-02-04 13:39:56,15.08840923,0.0001114,53.2149,232.9366,86.5082,273.6038,8.9694e-05,1.14e-05,0.0,0 STARLINK-4131,1 53246U 22086E   23035.56940315  .00001140  00000-0  89694-4 0  9990,2 53246  53.2149 232.9366 0001114  86.5082 273.6038 15.08840923 29676,6917.878,95.437,540.513,538.972,0.0
53246.0,STARLINK-4131,PAYLOAD,2023-02-04 21:36:51,15.08844741,0.0001149,53.2154,231.4498,87.2702,272.8422,0.00011283,1.509e-05,0.0,0 STARLINK-4131,1 53246U 22086E   23035.90060005  .00001509  00000-0  11283-3 0  9994,2 53246  53.2154 231.4498 0001149  87.2702 272.8422 15.08844741 29723,6917.866,95.437,540.526,538.936,0.0
53246.0,STARLINK-4131,PAYLOAD,2023-02-05 13:30:44,15.08834139,0.0001283,53.2163,228.4757,88.0154,272.0985,6.2781e-05,7.11e-06,0.0,0 STARLINK-4131,1 53246U 22086E   23036.56301075  .00000711  00000-0  62781-4 0  9996,2 53246  53.2163 228.4757 0001283  88.0154 272.0985 15.08834139 30432,6917.898,95.438,540.651,538.876,0.0
53246.0,STARLINK-4131,PAYLOAD,2023-02-05 21:27:39,15.08836709,0.0001166,53.2162,226.9891,90.9837,269.1289,8.7724e-05,1.108e-05,0.0,0 STARLINK-4131,1 53246U 22086E   23036.89420964  .00001108  00000-0  87724-4 0  9996,2 53246  53.2162 226.9891 0001166  90.9837 269.1289 15.08836709 29878,6917.89,95.438,540.562,538.949,0.0
53246.0,STARLINK-4131,PAYLOAD,2023-02-06 13:21:31,15.08841121,0.0001185,53.2163,224.0153,93.2236,266.8891,5.3415e-05,5.62e-06,0.0,0 STARLINK-4131,1 53246U 22086E   23037.55660952  .00000562  00000-0  53415-4 0  9996,2 53246  53.2163 224.0153 0001185  93.2236 266.8891 15.08841121 29977,6917.877,95.437,540.562,538.922,0.0
53246.0,STARLINK-4131,PAYLOAD,2023-02-06 19:43:03,15.08845745,0.0001133,53.2164,222.8258,85.955,274.1572,5.5149e-05,5.9e-06,0.0,0 STARLINK-4131,1 53246U 22086E   23037.82156631  .00000590  00000-0  55149-4 0  9997,2 53246  53.2164 222.8258 0001133  85.9550 274.1572 15.08845745 30628,6917.863,95.437,540.512,538.944,0.0
53246.0,STARLINK-4131,PAYLOAD,2023-02-07 11:36:54,15.08840221,0.0001146,53.2171,219.8528,90.7579,269.3544,0.00012747,1.741e-05,0.0,0 STARLINK-4131,1 53246U 22086E   23038.48396873  .00001741  00000-0  12747-3 0  9999,2 53246  53.2171 219.8528 0001146  90.7579 269.3544 15.08840221 30114,6917.88,95.438,540.538,538.952,0.0
53246.0,STARLINK-4131,PAYLOAD,2023-02-07 19:33:50,15.08845141,0.0001176,53.2161,218.366,88.5481,271.5646,0.00016624,2.359e-05,0.0,0 STARLINK-4131,1 53246U 22086E   23038.81516562  .00002359  00000-0  16624-3 0  9999,2 53246  53.2161 218.3660 0001176  88.5481 271.5646 15.08845141 30163,6917.865,95.437,540.543,538.916,0.0
53246.0,STARLINK-4131,PAYLOAD,2023-02-08 05:06:09,15.08840422,0.0001296,53.2157,216.5813,80.4497,279.6642,9.7131e-05,1.258e-05,0.0,0 STARLINK-4131,1 53246U 22086E   23039.21260873  .00001258  00000-0  97131-4 0  9995,2 53246  53.2157 216.5813 0001296  80.4497 279.6642 15.08840422 30835,6917.879,95.438,540.641,538.848,0.0
53246.0,STARLINK-4131,PAYLOAD,2023-02-08 11:27:42,15.08837285,0.0001279,53.215,215.3914,86.3057,273.8081,2.2256e-05,6.6e-07,0.0,0 STARLINK-4131,1 53246U 22086E   23039.47757071  .00000066  00000-0  22256-4 0  9996,2 53246  53.2150 215.3914 0001279  86.3057 273.8081 15.08837285 30268,6917.889,95.438,540.638,538.869,0.0
53246.0,STARLINK-4131,PAYLOAD,2023-02-08 17:49:14,15.08839067,0.0001326,53.2159,214.2027,84.659,275.4553,5.6253e-05,6.07e-06,0.0,0 STARLINK-4131,1 53246U 22086E   23039.74253073  .00000607  00000-0  56253-4 0  9994,2 53246  53.2159 214.2027 0001326  84.6590 275.4553 15.08839067 30303,6917.883,95.438,540.666,538.831,0.0
53246.0,STARLINK-4131,PAYLOAD,2023-02-09 11:18:29,15.08841138,0.0001431,53.216,210.9323,81.8909,278.2245,9.0637e-05,1.155e-05,0.0,0 STARLINK-4131,1 53246U 22086E   23040.47117120  .00001155  00000-0  90637-4 0  9991,2 53246  53.2160 210.9323 0001431  81.8909 278.2245 15.08841138 30410,6917.877,95.437,540.732,538.752,0.0
53246.0,STARLINK-4131,PAYLOAD,2023-02-09 17:40:01,15.08847313,0.0001417,53.216,209.7428,82.1637,277.9516,0.00017785,2.544e-05,0.0,0 STARLINK-4131,1 53246U 22086E   23040.73612787  .00002544  00000-0  17785-3 0  9994,2 53246  53.2160 209.7428 0001417  82.1637 277.9516 15.08847313 31068,6917.858,95.437,540.703,538.743,0.0
53246.0,STARLINK-4131,PAYLOAD,2023-02-09 20:50:47,15.08851406,0.0001327,53.2161,209.1476,86.861,273.2534,0.00022565,3.306e-05,0.0,0 STARLINK-4131,1 53246U 22086E   23040.86860579  .00003306  00000-0  22565-3 0  9991,2 53246  53.2161 209.1476 0001327  86.8610 273.2534 15.08851406 30479,6917.846,95.437,540.629,538.793,0.0
53246.0,STARLINK-4131,PAYLOAD,2023-02-10 14:20:02,15.08841397,0.0001285,53.2162,205.8764,97.1076,263.0063,0.00015519,2.183e-05,0.0,0 STARLINK-4131,1 53246U 22086E   23041.59725121  .00002183  00000-0  15519-3 0  9998,2 53246  53.2162 205.8764 0001285  97.1076 263.0063 15.08841397 31199,6917.876,95.437,540.63,538.852,0.0
53246.0,STARLINK-4131,PAYLOAD,2023-02-10 15:55:25,15.08838146,0.000151,53.2158,205.5797,81.5449,278.5714,9.9028e-05,1.288e-05,0.0,0 STARLINK-4131,1 53246U 22086E   23041.66349383  .00001288  00000-0  99028-4 0  9991,2 53246  53.2158 205.5797 0001510  81.5449 278.5714 15.08838146 30594,6917.886,95.438,540.796,538.706,0.0
53246.0,STARLINK-4131,PAYLOAD,2023-02-10 17:30:48,15.08844596,0.0001369,53.2164,205.2819,92.0761,268.0388,0.00016138,2.282e-05,0.0,0 STARLINK-4131,1 53246U 22086E   23041.72972947  .00002282  00000-0  16138-3 0  9991,2 53246  53.2164 205.2819 0001369  92.0761 268.0388 15.08844596 30608,6917.866,95.437,540.678,538.784,0.0
53246.0,STARLINK-4131,PAYLOAD,2023-02-11 20:32:21,15.08842016,0.0001235,53.216,200.225,86.9011,273.2122,2.2876e-05,7.6e-07,0.0,0 STARLINK-4131,1 53246U 22086E   23042.85580969  .00000076  00000-0  22876-4 0  9991,2 53246  53.2160 200.2250 0001235  86.9011 273.2122 15.08842016 31385,6917.874,95.437,540.594,538.885,0.0
53246.0,STARLINK-4131,PAYLOAD,2023-02-12 10:50:50,15.08835534,0.0001414,53.2163,197.5481,104.6957,255.4192,3.3694e-05,2.48e-06,0.0,0 STARLINK-4131,1 53246U 22086E   23043.45197362  .00000248  00000-0  33694-4 0  9990,2 53246  53.2163 197.5481 0001414 104.6957 255.4192 15.08835534 31474,6917.894,95.438,540.737,538.781,0.0
53246.0,STARLINK-4131,PAYLOAD,2023-02-12 20:23:08,15.08848254,0.0001351,53.2165,195.7644,111.3738,248.7398,0.0001285,1.758e-05,0.0,0 STARLINK-4131,1 53246U 22086E   23043.84940620  .00001758  00000-0  12850-3 0  9993,2 53246  53.2165 195.7644 0001351 111.3738 248.7398 15.08848254 31532,6917.855,95.437,540.655,538.786,0.0
53246.0,STARLINK-4131,PAYLOAD,2023-02-13 02:44:41,15.08834002,0.0001585,53.217,194.5742,99.9304,260.1867,3.7624e-06,-2.28e-06,0.0,0 STARLINK-4131,1 53246U 22086E   23044.11437454 -.00000228  00000-0  37624-5 0  9990,2 53246  53.2170 194.5742 0001585  99.9304 260.1867 15.08834002 31572,6917.899,95.438,540.86,538.667,0.0
53246.0,STARLINK-4131,PAYLOAD,2023-02-13 13:52:23,15.08840323,0.000109,53.2155,192.4948,97.655,262.4566,-1.0487e-06,-3.04e-06,0.0,0 STARLINK-4131,1 53246U 22086E   23044.57805349 -.00000304  00000-0 -10487-5 0  9996,2 53246  53.2155 192.4948 0001090  97.6550 262.4566 15.08840323 31034,6917.879,95.438,540.498,538.99,0.0
53246.0,STARLINK-4131,PAYLOAD,2023-02-13 18:38:33,15.08845309,0.000112,53.2165,191.6043,96.8794,263.2325,0.00015736,2.218e-05,0.0,0 STARLINK-4131,1 53246U 22086E   23044.77677170  .00002218  00000-0  15736-3 0  9991,2 53246  53.2165 191.6043 0001120  96.8794 263.2325 15.08845309 31678,6917.864,95.437,540.504,538.954,0.0
53246.0,STARLINK-4131,PAYLOAD,2023-02-14 02:35:29,15.08825304,6.93e-05,53.216,190.1156,91.785,268.3222,-0.0002981,-5.027e-05,0.0,0 STARLINK-4131,1 53246U 22086E   23045.10797694 -.00005027  00000-0 -29810-3 0  9994,2 53246  53.2160 190.1156 0000693  91.7850 268.3222 15.08825304 31724,6917.925,95.438,540.27,539.311,0.0
53246.0,STARLINK-4131,PAYLOAD,2023-02-14 13:43:11,15.0884453,0.0001016,53.2149,188.0346,86.3896,273.7212,0.00087427,0.00013655,0.0,0 STARLINK-4131,1 53246U 22086E   23045.57166013  .00013655  00000-0  87427-3 0  9992,2 53246  53.2149 188.0346 0001016  86.3896 273.7212 15.08844530 31189,6917.867,95.437,540.434,539.029,0.0
